{
    "links": {
        "self": "http://www.neowsapp.com/rest/v1/neo/54093079?api_key=iIulBulltgU6a56xZRHN4H3l9WmuAYTsLGpBGhQ2"
    },
    "id": "54093079",
    "neo_reference_id": "54093079",
    "name": "(2020 WP3)",
    "designation": "2020 WP3",
    "nasa_jpl_url": "http://ssd.jpl.nasa.gov/sbdb.cgi?sstr=54093079",
    "absolute_magnitude_h": 24.791,
    "estimated_diameter": {
        "kilometers": {
            "estimated_diameter_min": 0.0292654345,
            "estimated_diameter_max": 0.065439501
        },
        "meters": {
            "estimated_diameter_min": 29.2654345132,
            "estimated_diameter_max": 65.4395009627
        },
        "miles": {
            "estimated_diameter_min": 0.0181846923,
            "estimated_diameter_max": 0.0406622082
        },
        "feet": {
            "estimated_diameter_min": 96.0152081684,
            "estimated_diameter_max": 214.6965323384
        }
    },
    "is_potentially_hazardous_asteroid": false,
    "close_approach_data": [
        {
            "close_approach_date": "2020-12-05",
            "close_approach_date_full": "2020-Dec-05 14:45",
            "epoch_date_close_approach": 1607179500000,
            "relative_velocity": {
                "kilometers_per_second": "5.8831016939",
                "kilometers_per_hour": "21179.1660980355",
                "miles_per_hour": "13159.9101790821"
            },
            "miss_distance": {
                "astronomical": "0.1161476957",
                "lunar": "45.1814536273",
                "kilometers": "17375447.882128159",
                "miles": "10796602.6688362342"
            },
            "orbiting_body": "Earth"
        }
    ],
    "orbital_data": {
        "orbit_id": "1",
        "orbit_determination_date": "2020-11-23 13:12:03",
        "first_observation_date": "2020-11-19",
        "last_observation_date": "2020-11-23",
        "data_arc_in_days": 4,
        "observations_used": 20,
        "orbit_uncertainty": "9",
        "minimum_orbit_intersection": ".116197",
        "jupiter_tisserand_invariant": "4.750",
        "epoch_osculation": "2459174.5",
        "eccentricity": ".2285012539012533",
        "semi_major_axis": "1.383074189473933",
        "inclination": "10.17055684371833",
        "ascending_node_longitude": "57.47398150769836",
        "orbital_period": "594.1096983764218",
        "perihelion_distance": "1.06704000294068",
        "perihelion_argument": "43.54260358407152",
        "aphelion_distance": "1.699108376007187",
        "perihelion_time": "2459216.871316791551",
        "mean_anomaly": "334.325155629266",
        "mean_motion": ".6059487010291283",
        "equinox": "J2000",
        "orbit_class": {
            "orbit_class_type": "AMO",
            "orbit_class_description": "Near-Earth asteroid orbits similar to that of 1221 Amor",
            "orbit_class_range": "1.017 AU < q (perihelion) < 1.3 AU"
        }
    },
    "is_sentry_object": false
}